FALCONSAT-10            
1 58291U 23174AM  26068.70247784  .00006748  00000+0  25969-3 0  9991
2 58291  97.3865 145.7938 0008932 169.5942 190.5483 15.26670596129582
STARLINK-32703          
1 62996U 25031R   26068.24558614  .00037807  00000+0  13761-2 0  9994
2 62996  42.9976 146.1640 0001060 282.5807  77.4926 15.27587396 61029
